NORAD_CAT_ID,OBJECT_NAME,OBJECT_TYPE,EPOCH,MEAN_MOTION,ECCENTRICITY,INCLINATION,RA_OF_ASC_NODE,ARG_OF_PERICENTER,MEAN_ANOMALY,BSTAR,MEAN_MOTION_DOT,MEAN_MOTION_DDOT,TLE_LINE0,TLE_LINE1,TLE_LINE2,SEMIMAJOR_AXIS,PERIOD,APOGEE,PERIGEE,DECAYED
53277.0,STARLINK-4178,PAYLOAD,2023-12-06 20:34:06,15.08832102,0.0002468,53.217,282.4759,103.792,256.3347,2.2088e-05,6.3e-07,0.0,0 STARLINK-4178,1 53277U 22086AM  23340.85702394  .00000063  00000-0  22088-4 0  9995,2 53277  53.2170 282.4759 0002468 103.7920 256.3347 15.08832102 76826,6917.905,95.438,541.477,538.062,0.0
53277.0,STARLINK-4178,PAYLOAD,2023-12-07 02:55:39,15.08835506,0.000186,53.2186,281.2923,85.3572,274.7633,4.8334e-05,4.81e-06,0.0,0 STARLINK-4178,1 53277U 22086AM  23341.12198275  .00000481  00000-0  48334-4 0  9999,2 53277  53.2186 281.2923 0001860  85.3572 274.7633 15.08835506 76694,6917.894,95.438,541.046,538.472,0.0
53277.0,STARLINK-4178,PAYLOAD,2023-12-07 06:06:25,15.08842111,0.0001718,53.2175,280.6917,99.7887,260.33,2.3956e-05,9.3e-07,0.0,0 STARLINK-4178,1 53277U 22086AM  23341.25445764  .00000093  00000-0  23956-4 0  9993,2 53277  53.2175 280.6917 0001718  99.7887 260.3300 15.08842111 76881,6917.874,95.437,540.927,538.55,0.0
53277.0,STARLINK-4178,PAYLOAD,2023-12-08 02:46:26,15.08836153,0.0001742,53.2173,276.8261,99.7115,260.4074,1.5358e-05,-4.4e-07,0.0,0 STARLINK-4178,1 53277U 22086AM  23342.11558451 -.00000044  00000-0  15358-4 0  9991,2 53277  53.2173 276.8261 0001742  99.7115 260.4074 15.08836153 77013,6917.892,95.438,540.962,538.552,0.0
53277.0,STARLINK-4178,PAYLOAD,2023-12-08 20:15:41,15.0883879,0.0001615,53.2175,273.5546,93.9169,266.2007,4.5247e-05,4.32e-06,0.0,0 STARLINK-4178,1 53277U 22086AM  23342.84422482  .00000432  00000-0  45247-4 0  9995,2 53277  53.2175 273.5546 0001615  93.9169 266.2007 15.08838790 76950,6917.884,95.438,540.866,538.632,0.0
53277.0,STARLINK-4178,PAYLOAD,2023-12-09 05:48:00,15.08830199,0.0001956,53.2175,271.7708,148.0491,212.062,-3.3066e-05,-8.14e-06,0.0,0 STARLINK-4178,1 53277U 22086AM  23343.24167147 -.00000814  00000-0 -33066-4 0  9996,2 53277  53.2175 271.7708 0001956 148.0491 212.0620 15.08830199 77011,6917.91,95.438,541.128,538.422,0.0
53277.0,STARLINK-4178,PAYLOAD,2023-12-10 04:03:25,15.08827085,0.0001055,53.2179,267.6095,120.5468,239.5628,-5.4717e-05,-1.158e-05,0.0,0 STARLINK-4178,1 53277U 22086AM  23344.16904430 -.00001158  00000-0 -54717-4 0  9990,2 53277  53.2179 267.6095 0001055 120.5468 239.5628 15.08827085 77323,6917.92,95.438,540.515,539.055,0.0
53277.0,STARLINK-4178,PAYLOAD,2023-12-11 02:18:48,15.08838154,0.0001863,53.2173,263.4488,97.9085,262.2118,0.00028055,4.179e-05,0.0,0 STARLINK-4178,1 53277U 22086AM  23345.09639553  .00004179  00000-0  28055-3 0  9993,2 53277  53.2173 263.4488 0001863  97.9085 262.2118 15.08838154 77298,6917.886,95.438,541.04,538.462,0.0
53277.0,STARLINK-4178,PAYLOAD,2023-12-11 22:58:49,15.0885228,0.0002152,53.2186,259.5823,81.9067,278.2169,0.00011072,1.475e-05,0.0,0 STARLINK-4178,1 53277U 22086AM  23345.95751531  .00001475  00000-0  11072-3 0  9996,2 53277  53.2186 259.5823 0002152  81.9067 278.2169 15.08852280 77598,6917.843,95.437,541.197,538.219,0.0
53277.0,STARLINK-4178,PAYLOAD,2023-12-12 02:09:35,15.08849761,0.0002487,53.2187,258.9861,78.4971,281.6301,0.00019624,2.837e-05,0.0,0 STARLINK-4178,1 53277U 22086AM  23346.08999409  .00002837  00000-0  19624-3 0  9993,2 53277  53.2187 258.9861 0002487  78.4971 281.6301 15.08849761 77619,6917.851,95.437,541.436,537.995,0.0
53277.0,STARLINK-4178,PAYLOAD,2023-12-12 22:49:36,15.08849928,0.0002125,53.2185,255.1214,84.7717,275.3518,-4.0531e-06,-3.53e-06,0.0,0 STARLINK-4178,1 53277U 22086AM  23346.95111517 -.00000353  00000-0 -40531-5 0  9991,2 53277  53.2185 255.1214 0002125  84.7717 275.3518 15.08849928 77744,6917.85,95.437,541.185,538.245,0.0
53277.0,STARLINK-4178,PAYLOAD,2023-12-13 00:24:59,15.08850161,0.0002053,53.2187,254.8236,88.9005,271.2222,-3.6409e-06,-3.46e-06,0.0,0 STARLINK-4178,1 53277U 22086AM  23347.01735403 -.00000346  00000-0 -36409-5 0  9996,2 53277  53.2187 254.8236 0002053  88.9005 271.2222 15.08850161 77582,6917.849,95.437,541.135,538.294,0.0
53277.0,STARLINK-4178,PAYLOAD,2023-12-13 22:40:22,15.08842694,0.000202,53.2182,250.66,109.304,250.8171,0.00011523,1.546e-05,0.0,0 STARLINK-4178,1 53277U 22086AM  23347.94470701  .00001546  00000-0  11523-3 0  9994,2 53277  53.2182 250.6600 0002020 109.3040 250.8171 15.08842694 77899,6917.872,95.437,541.135,538.34,0.0
53277.0,STARLINK-4178,PAYLOAD,2023-12-14 00:15:45,15.0885684,0.000197,53.2185,250.3633,99.2558,260.8657,-6.3696e-05,-1.302e-05,0.0,0 STARLINK-4178,1 53277U 22086AM  23348.01094484 -.00001302  00000-0 -63696-4 0  9994,2 53277  53.2185 250.3633 0001970  99.2558 260.8657 15.08856840 77909,6917.829,95.436,541.057,538.331,0.0
53277.0,STARLINK-4178,PAYLOAD,2023-12-14 20:55:46,15.08842969,0.0001973,53.2187,246.499,94.8841,265.2376,3.8392e-05,3.23e-06,0.0,0 STARLINK-4178,1 53277U 22086AM  23348.87206845  .00000323  00000-0  38392-4 0  9999,2 53277  53.2187 246.4990 0001973  94.8841 265.2376 15.08842969 77861,6917.871,95.437,541.101,538.371,0.0
53277.0,STARLINK-4178,PAYLOAD,2023-12-14 22:31:09,15.08842482,0.0001854,53.2177,246.1989,82.237,277.8833,3.0441e-05,1.96e-06,0.0,0 STARLINK-4178,1 53277U 22086AM  23348.93830874  .00000196  00000-0  30441-4 0  9996,2 53277  53.2177 246.1989 0001854  82.2370 277.8833 15.08842482 78049,6917.873,95.437,541.02,538.455,0.0
53277.0,STARLINK-4178,PAYLOAD,2023-12-15 00:06:32,15.08844695,0.0001873,53.2175,245.9011,86.5467,273.5739,5.2618e-05,5.49e-06,0.0,0 STARLINK-4178,1 53277U 22086AM  23349.00454622  .00000549  00000-0  52618-4 0  9990,2 53277  53.2175 245.9011 0001873  86.5467 273.5739 15.08844695 78052,6917.866,95.437,541.027,538.435,0.0
53277.0,STARLINK-4178,PAYLOAD,2023-12-15 22:21:57,15.08837983,0.0002198,53.2176,241.7349,121.8002,238.3205,-7.9401e-05,-1.552e-05,0.0,0 STARLINK-4178,1 53277U 22086AM  23349.93191548 -.00001552  00000-0 -79401-4 0  9993,2 53277  53.2176 241.7349 0002198 121.8002 238.3205 15.08837983 78194,6917.887,95.438,541.272,538.231,0.0
53277.0,STARLINK-4178,PAYLOAD,2023-12-16 22:12:43,15.08846311,0.0001842,53.2176,237.2756,108.9433,251.1759,5.176e-05,5.36e-06,0.0,0 STARLINK-4178,1 53277U 22086AM  23350.92550657  .00000536  00000-0  51760-4 0  9991,2 53277  53.2176 237.2756 0001842 108.9433 251.1759 15.08846311 78344,6917.861,95.437,541.0,538.452,0.0
53277.0,STARLINK-4178,PAYLOAD,2023-12-16 23:48:06,15.08848142,0.0001807,53.2177,236.9782,106.9949,253.1241,6.7397e-05,7.85e-06,0.0,0 STARLINK-4178,1 53277U 22086AM  23350.99174513  .00000785  00000-0  67397-4 0  9990,2 53277  53.2177 236.9782 0001807 106.9949 253.1241 15.08848142 78185,6917.856,95.437,540.971,538.47,0.0
53277.0,STARLINK-4178,PAYLOAD,2023-12-17 20:28:08,15.08841292,0.0001695,53.2171,233.1162,97.4332,262.6852,8.0926e-05,1e-05,0.0,0 STARLINK-4178,1 53277U 22086AM  23351.85287185  .00001000  00000-0  80926-4 0  9990,2 53277  53.2171 233.1162 0001695  97.4332 262.6852 15.08841292 78312,6917.876,95.437,540.914,538.569,0.0
53277.0,STARLINK-4178,PAYLOAD,2023-12-17 22:03:31,15.08843806,0.0001758,53.2175,232.8199,104.1449,255.9739,0.00010022,1.307e-05,0.0,0 STARLINK-4178,1 53277U 22086AM  23351.91911023  .00001307  00000-0  10022-3 0  9991,2 53277  53.2175 232.8199 0001758 104.1449 255.9739 15.08843806 78498,6917.869,95.437,540.95,538.518,0.0
53277.0,STARLINK-4178,PAYLOAD,2023-12-17 23:38:54,15.08842788,0.0001767,53.2176,232.5203,91.1785,268.9409,0.00012611,1.72e-05,0.0,0 STARLINK-4178,1 53277U 22086AM  23351.98535107  .00001720  00000-0  12611-3 0  9998,2 53277  53.2176 232.5203 0001767  91.1785 268.9409 15.08842788 78508,6917.872,95.437,540.959,538.514,0.0
53277.0,STARLINK-4178,PAYLOAD,2023-12-18 21:54:19,15.088371,0.000177,53.2173,228.3615,86.7741,273.3453,-3.7128e-05,-8.79e-06,0.0,0 STARLINK-4178,1 53277U 22086AM  23352.91272031 -.00000879  00000-0 -37128-4 0  9993,2 53277  53.2173 228.3615 0001770  86.7741 273.3453 15.08837100 78647,6917.889,95.438,540.979,538.53,0.0
53277.0,STARLINK-4178,PAYLOAD,2023-12-18 23:29:41,15.08842562,0.0001603,53.2169,228.0602,86.0893,274.0282,-2.6554e-05,-7.11e-06,0.0,0 STARLINK-4178,1 53277U 22086AM  23352.97895504 -.00000711  00000-0 -26554-4 0  9991,2 53277  53.2169 228.0602 0001603  86.0893 274.0282 15.08842562 78489,6917.873,95.437,540.846,538.629,0.0
53277.0,STARLINK-4178,PAYLOAD,2023-12-19 23:20:28,15.08843447,0.0001786,53.2175,223.5957,66.0855,294.0324,3.6039e-05,2.86e-06,0.0,0 STARLINK-4178,1 53277U 22086AM  23353.97255623  .00000286  00000-0  36039-4 0  9998,2 53277  53.2175 223.5957 0001786  66.0855 294.0324 15.08843447 78805,6917.87,95.437,540.97,538.499,0.0
53277.0,STARLINK-4178,PAYLOAD,2023-12-20 20:00:29,15.08839308,0.0001634,53.2171,219.7312,78.3254,281.7922,0.00020457,2.969e-05,0.0,0 STARLINK-4178,1 53277U 22086AM  23354.83367406  .00002969  00000-0  20457-3 0  9993,2 53277  53.2171 219.7312 0001634  78.3254 281.7922 15.08839308 78767,6917.883,95.438,540.878,538.617,0.0
53277.0,STARLINK-4178,PAYLOAD,2023-12-20 21:35:52,15.08846878,0.0001747,53.216,219.4343,70.155,289.9631,0.00020712,3.01e-05,0.0,0 STARLINK-4178,1 53277U 22086AM  23354.89991482  .00003010  00000-0  20712-3 0  9998,2 53277  53.2160 219.4343 0001747  70.1550 289.9631 15.08846878 78947,6917.859,95.437,540.933,538.516,0.0
53277.0,STARLINK-4178,PAYLOAD,2023-12-21 21:26:40,15.08838251,0.0001314,53.2154,214.977,100.3722,259.7419,-1.6824e-05,-5.56e-06,0.0,0 STARLINK-4178,1 53277U 22086AM  23355.89351886 -.00000556  00000-0 -16824-4 0  9991,2 53277  53.2154 214.9770 0001314 100.3722 259.7419 15.08838251 79093,6917.886,95.438,540.66,538.842,0.0
53277.0,STARLINK-4178,PAYLOAD,2023-12-22 19:42:03,15.08849858,0.0001154,53.2154,210.8113,102.0076,258.1045,1.2713e-05,-8.5e-07,0.0,0 STARLINK-4178,1 53277U 22086AM  23356.82087324 -.00000085  00000-0  12713-4 0  9997,2 53277  53.2154 210.8113 0001154 102.0076 258.1045 15.08849858 79062,6917.85,95.437,540.514,538.917,0.0
